EUTELSAT QUANTUM        
1 49056U 21069B   25281.78748891  .00000000  00000+0  00000+0 0  9990
2 49056   0.0103 245.6107 0002929 345.9266 117.3076  1.00272151 15406
EUTELSAT KONNECT VHTS   
1 53765U 22110A   25281.27922958  .00000019  00000+0  00000+0 0  9992
2 53765   0.0573 100.0234 0002675  82.4623 297.8887  1.00269253  4302
EUTELSAT HOTBIRD 13F    
1 54048U 22134A   25279.84072736  .00000090  00000+0  00000+0 0  9992
2 54048   0.0576 282.7433 0001923  77.2695 331.4128  1.00271611 10834
EUTELSAT HOTBIRD 13G    
1 54225U 22146A   25279.63991818  .00000090  00000+0  00000+0 0  9990
2 54225   0.0495 234.5275 0002113 302.7558  81.6552  1.00271479  4926
EUTELSAT 10B            
1 54259U 22157A   25281.28070293  .00000070  00000+0  00000+0 0  9996
2 54259   0.0597  96.9255 0001863  38.5622 352.7486  1.00268744 10501
EUTELSAT 36D            
1 59346U 24059A   25281.21440264  .00000158  00000+0  00000+0 0  9990
2 59346   0.0199 214.5885 0000147  23.9299 251.6190  1.00270710  5622
